{
  "type": "FeatureCollection",
  "features": [
    {
      "type": "Feature",
      "properties": {
        "norad_id": 63632,
        "name": "SHENZHOU-20 (SZ-20)",
        "group": "stations",
        "lat": 35.91880751405515,
        "lon": -177.16849587641215,
        "alt_km": 390.4061878959719,
        "timestamp": "2025-12-05T22:40:47.362997+00:00",
        "meta_object_name": "SHENZHOU-20 (SZ-20)",
        "meta_object_id": "2025-082A",
        "meta_epoch": "2025-12-05T06:48:03.993120",
        "meta_mean_motion": 15.5871605,
        "meta_eccentricity": 0.00098342,
        "meta_inclination": 41.4682,
        "meta_ra_of_asc_node": 61.9587,
        "meta_arg_of_pericenter": 333.0075,
        "meta_mean_anomaly": 27.0251,
        "meta_ephemeris_type": 0,
        "meta_classification_type": "U",
        "meta_norad_cat_id": 63632,
        "meta_element_set_no": 999,
        "meta_rev_at_epoch": 25530,
        "meta_bstar": 0.00043162186,
        "meta_mean_motion_dot": 0.00034071,
        "meta_mean_motion_ddot": 0,
        "tle_line1": "1 63632U 25082A   25339.28337955  .00034071  00000+0  43162-3 0  9994",
        "tle_line2": "2 63632  41.4682  61.9587 0009834 333.0075  27.0251 15.58716050255308"
      },
      "geometry": {
        "type": "Point",
        "coordinates": [
          -177.16849587641215,
          35.91880751405515
        ]
      }
    },
    {
      "type": "Feature",
      "properties": {
        "norad_id": 64751,
        "name": "PROGRESS-MS 31",
        "group": "stations",
        "lat": -51.043198517596444,
        "lon": 74.62163462286281,
        "alt_km": 421.7953854324096,
        "timestamp": "2025-12-05T22:40:47.363008+00:00",
        "meta_object_name": "PROGRESS-MS 31",
        "meta_object_id": "2025-146A",
        "meta_epoch": "2025-12-05T06:04:12.236160",
        "meta_mean_motion": 15.49328184,
        "meta_eccentricity": 0.00035858,
        "meta_inclination": 51.6297,
        "meta_ra_of_asc_node": 179.5463,
        "meta_arg_of_pericenter": 206.2517,
        "meta_mean_anomaly": 153.8291,
        "meta_ephemeris_type": 0,
        "meta_classification_type": "U",
        "meta_norad_cat_id": 64751,
        "meta_element_set_no": 999,
        "meta_rev_at_epoch": 675,
        "meta_bstar": 0.0002719745,
        "meta_mean_motion_dot": 0.00014736,
        "meta_mean_motion_ddot": 0,
        "tle_line1": "1 64751U 25146A   25339.25291940  .00014736  00000+0  27197-3 0  9994",
        "tle_line2": "2 64751  51.6297 179.5463 0003585 206.2517 153.8291 15.49328184  6756"
      },
      "geometry": {
        "type": "Point",
        "coordinates": [
          74.62163462286281,
          -51.043198517596444
        ]
      }
    },
    {
      "type": "Feature",
      "properties": {
        "norad_id": 64786,
        "name": "TIANZHOU-9",
        "group": "stations",
        "lat": 35.918806997120306,
        "lon": -177.16849431747775,
        "alt_km": 390.40618808061026,
        "timestamp": "2025-12-05T22:40:47.363018+00:00",
        "meta_object_name": "TIANZHOU-9",
        "meta_object_id": "2025-149A",
        "meta_epoch": "2025-12-05T06:48:03.993120",
        "meta_mean_motion": 15.5871605,
        "meta_eccentricity": 0.00098342,
        "meta_inclination": 41.4682,
        "meta_ra_of_asc_node": 61.9587,
        "meta_arg_of_pericenter": 333.0075,
        "meta_mean_anomaly": 27.0251,
        "meta_ephemeris_type": 0,
        "meta_classification_type": "U",
        "meta_norad_cat_id": 64786,
        "meta_element_set_no": 999,
        "meta_rev_at_epoch": 25530,
        "meta_bstar": 0.00043162186,
        "meta_mean_motion_dot": 0.00034071,
        "meta_mean_motion_ddot": 0,
        "tle_line1": "1 64786U 25149A   25339.28337955  .00034071  00000+0  43162-3 0  9999",
        "tle_line2": "2 64786  41.4682  61.9587 0009834 333.0075  27.0251 15.58716050255309"
      },
      "geometry": {
        "type": "Point",
        "coordinates": [
          -177.16849431747775,
          35.918806997120306
        ]
      }
    },
    {
      "type": "Feature",
      "properties": {
        "norad_id": 65077,
        "name": "CREW DRAGON 11",
        "group": "stations",
        "lat": -51.04319871914884,
        "lon": 74.62163664846736,
        "alt_km": 421.7953854821699,
        "timestamp": "2025-12-05T22:40:47.363028+00:00",
        "meta_object_name": "CREW DRAGON 11",
        "meta_object_id": "2025-166A",
        "meta_epoch": "2025-12-05T06:04:12.236160",
        "meta_mean_motion": 15.49328184,
        "meta_eccentricity": 0.00035858,
        "meta_inclination": 51.6297,
        "meta_ra_of_asc_node": 179.5463,
        "meta_arg_of_pericenter": 206.2517,
        "meta_mean_anomaly": 153.8291,
        "meta_ephemeris_type": 0,
        "meta_classification_type": "U",
        "meta_norad_cat_id": 65077,
        "meta_element_set_no": 999,
        "meta_rev_at_epoch": 214,
        "meta_bstar": 0.0002719745,
        "meta_mean_motion_dot": 0.00014736,
        "meta_mean_motion_ddot": 0,
        "tle_line1": "1 65077U 25166A   25339.25291940  .00014736  00000+0  27197-3 0  9998",
        "tle_line2": "2 65077  51.6297 179.5463 0003585 206.2517 153.8291 15.49328184  2147"
      },
      "geometry": {
        "type": "Point",
        "coordinates": [
          74.62163664846736,
          -51.04319871914884
        ]
      }
    },
    {
      "type": "Feature",
      "properties": {
        "norad_id": 65304,
        "name": "DRAGON CRS-33",
        "group": "stations",
        "lat": -51.0431988199251,
        "lon": 74.62163766127028,
        "alt_km": 421.7953855070509,
        "timestamp": "2025-12-05T22:40:47.363038+00:00",
        "meta_object_name": "DRAGON CRS-33",
        "meta_object_id": "2025-186A",
        "meta_epoch": "2025-12-05T06:04:12.236160",
        "meta_mean_motion": 15.49328184,
        "meta_eccentricity": 0.00035858,
        "meta_inclination": 51.6297,
        "meta_ra_of_asc_node": 179.5463,
        "meta_arg_of_pericenter": 206.2517,
        "meta_mean_anomaly": 153.8291,
        "meta_ephemeris_type": 0,
        "meta_classification_type": "U",
        "meta_norad_cat_id": 65304,
        "meta_element_set_no": 999,
        "meta_rev_at_epoch": 11,
        "meta_bstar": 0.0002719745,
        "meta_mean_motion_dot": 0.00014736,
        "meta_mean_motion_ddot": 0,
        "tle_line1": "1 65304U 25186A   25339.25291940  .00014736  00000+0  27197-3 0  9993",
        "tle_line2": "2 65304  51.6297 179.5463 0003585 206.2517 153.8291 15.49328184   115"
      },
      "geometry": {
        "type": "Point",
        "coordinates": [
          74.62163766127028,
          -51.0431988199251
        ]
      }
    },
    {
      "type": "Feature",
      "properties": {
        "norad_id": 65586,
        "name": "PROGRESS-MS 32",
        "group": "stations",
        "lat": -51.043198910623964,
        "lon": 74.62163857279523,
        "alt_km": 421.7953855294454,
        "timestamp": "2025-12-05T22:40:47.363047+00:00",
        "meta_object_name": "PROGRESS-MS 32",
        "meta_object_id": "2025-204A",
        "meta_epoch": "2025-12-05T06:04:12.236160",
        "meta_mean_motion": 15.49328184,
        "meta_eccentricity": 0.00035858,
        "meta_inclination": 51.6297,
        "meta_ra_of_asc_node": 179.5463,
        "meta_arg_of_pericenter": 206.2517,
        "meta_mean_anomaly": 153.8291,
        "meta_ephemeris_type": 0,
        "meta_classification_type": "U",
        "meta_norad_cat_id": 65586,
        "meta_element_set_no": 999,
        "meta_rev_at_epoch": 27,
        "meta_bstar": 0.0002719745,
        "meta_mean_motion_dot": 0.00014736,
        "meta_mean_motion_ddot": 0,
        "tle_line1": "1 65586U 25204A   25339.25291940  .00014736  00000+0  27197-3 0  9996",
        "tle_line2": "2 65586  51.6297 179.5463 0003585 206.2517 153.8291 15.49328184   274"
      },
      "geometry": {
        "type": "Point",
        "coordinates": [
          74.62163857279523,
          -51.043198910623964
        ]
      }
    },
    {
      "type": "Feature",
      "properties": {
        "norad_id": 65616,
        "name": "CYGNUS NG-23",
        "group": "stations",
        "lat": -51.04319901139995,
        "lon": 74.62163958559557,
        "alt_km": 421.7953855543228,
        "timestamp": "2025-12-05T22:40:47.363057+00:00",
        "meta_object_name": "CYGNUS NG-23",
        "meta_object_id": "2025-208A",
        "meta_epoch": "2025-12-05T06:04:12.236160",
        "meta_mean_motion": 15.49328184,
        "meta_eccentricity": 0.00035858,
        "meta_inclination": 51.6297,
        "meta_ra_of_asc_node": 179.5463,
        "meta_arg_of_pericenter": 206.2517,
        "meta_mean_anomaly": 153.8291,
        "meta_ephemeris_type": 0,
        "meta_classification_type": "U",
        "meta_norad_cat_id": 65616,
        "meta_element_set_no": 999,
        "meta_rev_at_epoch": 22,
        "meta_bstar": 0.0002719745,
        "meta_mean_motion_dot": 0.00014736,
        "meta_mean_motion_ddot": 0,
        "tle_line1": "1 65616U 25208A   25339.25291940  .00014736  00000+0  27197-3 0  9994",
        "tle_line2": "2 65616  51.6297 179.5463 0003585 206.2517 153.8291 15.49328184   223"
      },
      "geometry": {
        "type": "Point",
        "coordinates": [
          74.62163958559557,
          -51.04319901139995
        ]
      }
    }
  ]
}